AMC-1 (GE-1)            
1 24315U 96054A   23283.50455265  .00000065  00000+0  00000+0 0  9998
2 24315   6.7591  68.8800 0008524 176.7954 198.0080  0.99503148 99185
AMC-3 (GE-3)            
1 24936U 97050A   23284.47780562 -.00000256  00000+0  00000+0 0  9995
2 24936   5.7243  74.7493 0002955 137.9175 267.1704  1.00272710 95624
ASTRA 1G                
1 25071U 97076A   23284.05604944  .00000015  00000+0  00000+0 0  9999
2 25071   7.2237  63.5039 0010368 125.5602  60.1524  0.99038294 94693
ASTRA 2A                
1 25462U 98050A   23284.11235289  .00000071  00000+0  00000+0 0  9997
2 25462   4.6087  80.2764 0003075 124.8831 271.9617  1.00273721 91911
NSS-11 (AAP-1)          
1 26554U 00059A   23283.98591073  .00000024  00000+0  00000+0 0  9990
2 26554   0.0511  64.8190 0002787 132.2389 353.2109  1.00272433 84345
AMC-6 (GE-6)            
1 26580U 00067A   23284.14014097  .00000103  00000+0  00000+0 0  9991
2 26580   0.0534  69.0671 0002910 153.4736  68.3983  1.00273015 84159
ASTRA 2C                
1 26853U 01025A   23284.04632794 -.00000256  00000+0  00000+0 0  9998
2 26853   5.7454  74.5712 0002547 126.7103 122.2702  1.00275793 81745
NSS-7                   
1 27414U 02019A   23284.21230253 -.00000153  00000+0  00000+0 0  9995
2 27414   7.0250  67.1280 0002273 140.0857 228.7848  1.00271845 78739
NSS-6                   
1 27603U 02057A   23283.80591200 -.00000233  00000+0  00000+0 0  9992
2 27603   2.8290  86.2597 0004219 169.6463  10.9157  0.99126957 76193
AMC-11 (GE-11)          
1 28252U 04017A   23284.48039691 -.00000049  00000+0  00000+0 0  9992
2 28252   0.0536  60.8148 0002470 162.8582 217.9991  1.00272506 70881
AMC-15                  
1 28446U 04041A   23284.47926644 -.00000089  00000+0  00000+0 0  9990
2 28446   0.0523  57.6867 0002491 133.3439 256.2843  1.00273054 69521
NSS-10 (AMC-12)         
1 28526U 05003A   23284.38012139 -.00000247  00000+0  00000+0 0  9999
2 28526   3.9833  82.0235 0002851 112.3872 284.7133  1.00272875 68498
ASTRA 1KR               
1 29055U 06012A   23283.90671590  .00000118  00000+0  00000+0 0  9993
2 29055   0.0194 136.5192 0005155  83.3976 144.9593  1.00271468 63919
AMC-18                  
1 29644U 06054B   23284.47191351 -.00000215  00000+0  00000+0 0  9997
2 29644   0.0558  68.7845 0002815 148.6313 249.2951  1.00271480 61692
ASTRA 1L                
1 31306U 07016A   23283.98105267  .00000118  00000+0  00000+0 0  9991
2 31306   0.0157   1.5931 0003754 231.3243 158.7757  1.00268700 60217
ASTRA 4A (SIRIUS 4)     
1 32299U 07057A   23284.31685597  .00000033  00000+0  00000+0 0  9991
2 32299   0.0536  70.0245 0002509 133.5455 294.9654  1.00272008 58137
AMC-21                  
1 33275U 08038B   23283.50289924  .00000034  00000+0  00000+0 0  9991
2 33275   0.4048  93.8805 0003414 119.7611 221.3650  1.00272994 55653
ASTRA 1M                
1 33436U 08057A   23284.31972772  .00000120  00000+0  00000+0 0  9997
2 33436   0.0659  87.6012 0004669  94.0583 332.3306  1.00275598 54656
CIEL-2                  
1 33453U 08063A   23284.58219219  .00000059  00000+0  00000+0 0  9993
2 33453   0.2270  94.3497 0002895 115.7491 250.5743  1.00273446 54304
NSS-9                   
1 33749U 09008A   23284.07410541  .00000071  00000+0  00000+0 0  9990
2 33749   0.0550  63.1856 0002220 132.1912  33.7919  1.00271794 53733
SES-7 (PROTOSTAR 2)     
1 34941U 09027A   23283.82312815 -.00000347  00000+0  00000+0 0  9990
2 34941   0.0947  83.0956 0001518 167.5052 173.1722  1.00272990 52780
NSS-12                  
1 36032U 09058A   23283.77089094  .00000069  00000+0  00000+0 0  9991
2 36032   0.0514  69.2475 0002736 134.1380 150.2602  1.00272540 51088
SES-1                   
1 36516U 10016A   23283.81028084 -.00000116  00000+0  00000+0 0  9995
2 36516   0.0317 294.1402 0002519 272.3623   3.3698  1.00272823 49218
ASTRA 3B                
1 36581U 10021A   23284.33313340  .00000137  00000+0  00000+0 0  9995
2 36581   0.0543   1.5103 0003292 179.3032 342.3016  1.00269825 48822
SES-3                   
1 37748U 11035A   23284.05141661 -.00000103  00000+0  00000+0 0  9995
2 37748   0.0553  60.1449 0002671 142.0896  92.6727  1.00272030 44864
ASTRA 1N                
1 37775U 11041A   23284.31972772  .00000120  00000+0  00000+0 0  9994
2 37775   0.0777  48.1399 0000861  83.3829  22.4648  1.00275096 44570
SES-2                   
1 37809U 11049A   23283.47154035 -.00000199  00000+0  00000+0 0  9997
2 37809   0.0400 288.4853 0002345 268.4633 264.6256  1.00274577 44133
QUETZSAT 1              
1 37826U 11054A   23283.47699005 -.00000244  00000+0  00000+0 0  9994
2 37826   0.0542  69.6281 0002527 151.7727 252.1631  1.00271220 40051
SES-4                   
1 38087U 12007A   23284.21230253 -.00000169  00000+0  00000+0 0  9998
2 38087   0.0127 104.1644 0002560 106.2316 223.5916  1.00270479 42666
SES-5                   
1 38652U 12036A   23284.31694300  .00000034  00000+0  00000+0 0  9996
2 38652   0.0504 300.5994 0002038 264.3857 293.7613  1.00272546 41242
ASTRA 2F                
1 38778U 12051A   23284.33313340  .00000150  00000+0  00000+0 0  9995
2 38778   0.0556 243.9054 0004235 331.0768 312.8007  1.00271748 40465
SES-6                   
1 39172U 13026A   23284.37951223 -.00000261  00000+0  00000+0 0  9993
2 39172   0.0201 104.7982 0001915 107.6683 263.3636  1.00269152 37897
O3B FM5                 
1 39188U 13031A   23283.21458806 -.00000027  00000+0  00000+0 0  9997
2 39188   0.0362 355.0774 0002987 201.5694 163.3474  5.00115726187962
O3B FM4                 
1 39189U 13031B   23283.27023092 -.00000027  00000+0  00000+0 0  9999
2 39189   0.0597  12.9706 0002976 184.9408 162.0822  5.00116202187976
O3B FM2                 
1 39190U 13031C   23284.36165550 -.00000024  00000+0  00000+0 0  9995
2 39190   0.0640  15.5221 0002783 182.3124 162.1604  5.00115420188084
O3B PFM                 
1 39191U 13031D   23284.38745615 -.00000024  00000+0  00000+0 0  9994
2 39191   0.0440   1.3192 0002553 198.0101 160.6657  5.00116048188108
ASTRA 2E                
1 39285U 13056A   23283.86210503  .00000148  00000+0  00000+0 0  9996
2 39285   0.0974 309.4787 0002751 248.1882 160.3831  1.00270079 36608
SES-8                   
1 39460U 13071A   23283.84070641 -.00000272  00000+0  00000+0 0  9992
2 39460   0.0252 250.5532 0001536 287.3759 238.9057  1.00272189 34596
ASTRA 5B                
1 39617U 14011B   23284.33313340  .00000137  00000+0  00000+0 0  9991
2 39617   0.0754 304.7034 0003494 276.1356 302.2514  1.00272413 35044
O3B FM3                 
1 40079U 14038A   23283.44237053 -.00000026  00000+0  00000+0 0  9999
2 40079   0.0525  10.2339 0000314 234.1789 115.5882  5.00116766163983
O3B FM7                 
1 40080U 14038B   23283.58890965 -.00000026  00000+0  00000+0 0  9993
2 40080   0.0537  14.7243 0004367 176.3704 168.8999  5.00115936168823
O3B FM6                 
1 40081U 14038C   23283.41569365 -.00000026  00000+0  00000+0 0  9993
2 40081   0.0535   9.8169 0002617 187.1360 163.0425  5.00115277168760
O3B FM8                 
1 40082U 14038D   23283.46922793 -.00000026  00000+0  00000+0 0  9997
2 40082   0.0536  10.8702 0002604 190.5585 158.5647  5.00115301168886
O3B FM10                
1 40348U 14083A   23282.89604489 -.00000028  00000+0  00000+0 0  9999
2 40348   0.0492   1.0405 0002605 196.9485 162.0056  5.00115380160809
O3B FM11                
1 40349U 14083B   23283.10922903 -.00000027  00000+0  00000+0 0  9998
2 40349   0.0456   4.8249 0003121 183.3396 171.8345  5.00115584160830
O3B FM12                
1 40350U 14083C   23283.13651064 -.00000027  00000+0  00000+0 0  9990
2 40350   0.0465   4.9249 0002617 189.1863 165.8854  5.00115517160840
O3B FM9                 
1 40351U 14083D   23283.56277546 -.00000026  00000+0  00000+0 0  9996
2 40351   0.0445   5.5490 0002680 192.1112 162.3347  5.00115098161018
ASTRA 2G                
1 40364U 14089A   23284.33313340  .00000150  00000+0  00000+0 0  9992
2 40364   0.0174 349.5863 0001379 111.4361  66.7727  1.00273340 32196
SES-9                   
1 41380U 16013A   23283.87337500 -.00000347  00000+0  00000+0 0  9991
2 41380   0.0256 279.5235 0001314 222.8300 299.5857  1.00270987 27604
SES-10                  
1 42432U 17017A   23284.05211010 -.00000274  00000+0  00000+0 0  9992
2 42432   0.0158 137.8011 0002807  71.8535 121.5971  1.00268418 23896
SES-15                  
1 42709U 17026A   23283.50211602  .00000057  00000+0  00000+0 0  9993
2 42709   0.0342  44.2782 0000353 170.6646 215.5155  1.00268908 24353
SES-11 (ECHOSTAR 105)   
1 42967U 17063A   23284.05743692 -.00000091  00000+0  00000+0 0  9999
2 42967   0.0185 256.4158 0002896 326.2565  72.4692  1.00272358 21976
SES-14                  
1 43175U 18012B   23283.44668262 -.00000281  00000+0  00000+0 0  9998
2 43175   0.0255 289.8586 0001047 270.4437 291.8205  1.00271861 21230
O3B FM15                
1 43231U 18024A   23283.22909140 -.00000027  00000+0  00000+0 0  9991
2 43231   0.0516 358.3121 0002659 196.2547 165.4296  5.00114575101953
O3B FM16                
1 43232U 18024B   23283.28215137 -.00000027  00000+0  00000+0 0  9994
2 43232   0.0540 354.4856 0002711 200.4421 165.0684  5.00116292101877
O3B FM14                
1 43233U 18024C   23283.72199807 -.00000026  00000+0  00000+0 0  9998
2 43233   0.0553 353.7423 0002904 201.5372 164.7161  5.00115788101904
O3B FM13                
1 43234U 18024D   23283.57580095 -.00000026  00000+0  00000+0 0  9995
2 43234   0.0441  15.6139 0002361 166.9153 177.4738  5.00115641102019
SES-12                  
1 43488U 18049A   23283.97688378 -.00000271  00000+0  00000+0 0  9992
2 43488   0.0327  30.2159 0002194 216.5232 219.2657  1.00270693 19581
O3B FM20                
1 44112U 19020A   23283.74867869 -.00000026  00000+0  00000+0 0  9994
2 44112   0.0497   1.4522 0002783 186.5749 171.9728  5.00115812 82512
O3B FM19                
1 44113U 19020B   23283.77568980 -.00000026  00000+0  00000+0 0  9990
2 44113   0.0288  11.4810 0004196 186.0173 162.4915  5.00115600 82392
O3B FM17                
1 44114U 19020C   23283.45603710 -.00000026  00000+0  00000+0 0  9997
2 44114   0.0694   1.7535 0002634 192.2039 166.0395  5.00116070 82467
O3B FM18                
1 44115U 19020D   23284.40192454 -.00000024  00000+0  00000+0 0  9990
2 44115   0.0493   1.4118 0002688 197.6302 160.9528  5.00116083 82623
SES-17                  
1 49332U 21095A   23283.51447324 -.00000274  00000+0  00000+0 0  9998
2 49332   0.0181 186.6888 0001039  15.2283 295.0543  1.00266711  8013
SES-22                  
1 52933U 22071A   23283.71584359  .00000085  00000+0  00000+0 0  9995
2 52933   0.0162 257.4534 0001137 321.5197 282.8229  1.00274773  4731
SES-20                  
1 53960U 22123A   23283.50725036 -.00000103  00000+0  00000+0 0  9992
2 53960   0.0228 149.4202 0001483 321.1198 347.8339  1.00270912  3709
SES-21                  
1 53961U 22123B   23282.65501830  .00000064  00000+0  00000+0 0  9997
2 53961   0.0149 109.0985 0001077  79.7494 293.9936  1.00270685  3718
O3B MPOWER F1           
1 54755U 22174A   23284.40266024 -.00000024  00000+0  00000+0 0  9990
2 54755   0.0497  18.5697 0005091 196.6493   7.2178  5.00118447 16324
O3B MPOWER F2           
1 54756U 22174B   23284.39055816 -.00000024  00000+0  00000+0 0  9994
2 54756   0.0521  18.8287 0007312 229.2286 111.8698  5.00113685 16410
SES-18                  
1 55970U 23038A   23281.35782448 -.00000108  00000+0  00000+0 0  9997
2 55970   0.0092 196.8376 0002507  40.5546 165.0594  1.00272153  2246
SES-19                  
1 55971U 23038B   23283.50098472  .00000085  00000+0  00000+0 0  9997
2 55971   0.0208 215.8670 0001628 345.3187 223.0981  1.00271942  2256
O3B MPOWER F4           
1 56367U 23059A   23283.11225729 -.00000027  00000+0  00000+0 0  9991
2 56367   0.0378   2.2664 0006527 210.0425 147.6550  5.00115121  9521
O3B MPOWER F3           
1 56368U 23059B   23284.41170849 -.00000024  00000+0  00000+0 0  9995
2 56368   0.0372 359.3055 0003013 232.3288 128.3434  5.00114896  9735
